STARLINK-34694          
1 66189U 25243N   25317.13394433  .00321277  00000+0  21063-2 0  9999
2 66189  53.1576  69.1429 0001096  99.0041 261.1103 15.74288306  2773
STARLINK-34863          
1 66190U 25243P   25317.13529693  .00279020  00000+0  18407-2 0  9995
2 66190  53.1578  69.1511 0000858  85.5518 274.5600 15.74268673  2778
STARLINK-35061          
1 66191U 25243Q   25317.13191678  .00318033  00000+0  20856-2 0  9993
2 66191  53.1576  69.1286 0001307 121.2350 238.8798 15.74292169  2776
STARLINK-34937          
1 66192U 25243R   25317.13218525  .00349807  00000+0  22626-2 0  9995
2 66192  53.1578  69.1310 0001791 231.7163 128.3696 15.74518236  2779
STARLINK-35197          
1 66193U 25243S   25317.13259248  .00295768  00000+0  19466-2 0  9997
2 66193  53.1579  69.1331 0000959  47.6688 312.4413 15.74273457  2771
STARLINK-35374          
1 66194U 25243T   25317.13293098  .00321903  00000+0  21107-2 0  9995
2 66194  53.1579  69.1356 0000857  86.8999 273.2119 15.74283339  2773
STARLINK-34813          
1 66195U 25243U   25317.13326762  .00287028  00000+0  18911-2 0  9999
2 66195  53.1576  69.1381 0000846  86.6034 273.5083 15.74274655  2779
STARLINK-35409          
1 66196U 25243V   25317.13360699  .00355402  00000+0  23181-2 0  9994
2 66196  53.1574  69.1407 0001329 119.5332 240.5820 15.74308294  2771
STARLINK-35518          
1 66197U 25243X   25317.13428233  .00288719  00000+0  19019-2 0  9995
2 66197  53.1577  69.1448 0000678  98.2769 261.8327 15.74272514  2776
STARLINK-35259          
1 66198U 25243W   25317.12752039  .00535390  00000+0  34065-2 0  9997
2 66198  53.1579  69.0971 0000538 102.8664 257.2416 15.74364199  2779
STARLINK-35509          
1 66199U 25243Y   25317.12718368  .00545088  00000+0  34641-2 0  9990
2 66199  53.1579  69.0952 0000979  62.7649 297.3471 15.74365305  2771
STARLINK-35551          
1 66200U 25243Z   25316.91668981 -.00010442  00000+0 -67105-4 0  9990
2 66200  53.1581  70.1486 0001131  86.9695 155.7478 15.74182811  3798
