CCSDS_OMM_VERS = 2.0
CREATION_DATE  = 
ORIGINATOR     = 

OBJECT_NAME    = STARLINK-34694
OBJECT_ID      = 2025-243N
CENTER_NAME    = EARTH
REF_FRAME      = TEME
TIME_SYSTEM    = UTC
MEAN_ELEMENT_THEORY = SGP/SGP4

EPOCH          = 2025-11-13T03:12:52.790112
MEAN_MOTION    = 15.74288306
ECCENTRICITY   = .0001096
INCLINATION    = 53.1576
RA_OF_ASC_NODE = 69.1429
ARG_OF_PERICENTER = 99.0041
MEAN_ANOMALY   = 261.1103

EPHEMERIS_TYPE = 0
CLASSIFICATION_TYPE = U
NORAD_CAT_ID   = 66189
ELEMENT_SET_NO = 999
REV_AT_EPOCH   = 277
BSTAR          = .21063E-2
MEAN_MOTION_DOT = .321277E-2
MEAN_MOTION_DDOT = 0

CCSDS_OMM_VERS = 2.0
CREATION_DATE  = 
ORIGINATOR     = 

OBJECT_NAME    = STARLINK-34863
OBJECT_ID      = 2025-243P
CENTER_NAME    = EARTH
REF_FRAME      = TEME
TIME_SYSTEM    = UTC
MEAN_ELEMENT_THEORY = SGP/SGP4

EPOCH          = 2025-11-13T03:14:49.654752
MEAN_MOTION    = 15.74268673
ECCENTRICITY   = .0000858
INCLINATION    = 53.1578
RA_OF_ASC_NODE = 69.1511
ARG_OF_PERICENTER = 85.5518
MEAN_ANOMALY   = 274.5600

EPHEMERIS_TYPE = 0
CLASSIFICATION_TYPE = U
NORAD_CAT_ID   = 66190
ELEMENT_SET_NO = 999
REV_AT_EPOCH   = 277
BSTAR          = .18407E-2
MEAN_MOTION_DOT = .27902E-2
MEAN_MOTION_DDOT = 0

CCSDS_OMM_VERS = 2.0
CREATION_DATE  = 
ORIGINATOR     = 

OBJECT_NAME    = STARLINK-35061
OBJECT_ID      = 2025-243Q
CENTER_NAME    = EARTH
REF_FRAME      = TEME
TIME_SYSTEM    = UTC
MEAN_ELEMENT_THEORY = SGP/SGP4

EPOCH          = 2025-11-13T03:09:57.609792
MEAN_MOTION    = 15.74292169
ECCENTRICITY   = .0001307
INCLINATION    = 53.1576
RA_OF_ASC_NODE = 69.1286
ARG_OF_PERICENTER = 121.2350
MEAN_ANOMALY   = 238.8798

EPHEMERIS_TYPE = 0
CLASSIFICATION_TYPE = U
NORAD_CAT_ID   = 66191
ELEMENT_SET_NO = 999
REV_AT_EPOCH   = 277
BSTAR          = .20856E-2
MEAN_MOTION_DOT = .318033E-2
MEAN_MOTION_DDOT = 0

CCSDS_OMM_VERS = 2.0
CREATION_DATE  = 
ORIGINATOR     = 

OBJECT_NAME    = STARLINK-34937
OBJECT_ID      = 2025-243R
CENTER_NAME    = EARTH
REF_FRAME      = TEME
TIME_SYSTEM    = UTC
MEAN_ELEMENT_THEORY = SGP/SGP4

EPOCH          = 2025-11-13T03:10:20.805600
MEAN_MOTION    = 15.74518236
ECCENTRICITY   = .0001791
INCLINATION    = 53.1578
RA_OF_ASC_NODE = 69.1310
ARG_OF_PERICENTER = 231.7163
MEAN_ANOMALY   = 128.3696

EPHEMERIS_TYPE = 0
CLASSIFICATION_TYPE = U
NORAD_CAT_ID   = 66192
ELEMENT_SET_NO = 999
REV_AT_EPOCH   = 277
BSTAR          = .22626E-2
MEAN_MOTION_DOT = .349807E-2
MEAN_MOTION_DDOT = 0

CCSDS_OMM_VERS = 2.0
CREATION_DATE  = 
ORIGINATOR     = 

OBJECT_NAME    = STARLINK-35197
OBJECT_ID      = 2025-243S
CENTER_NAME    = EARTH
REF_FRAME      = TEME
TIME_SYSTEM    = UTC
MEAN_ELEMENT_THEORY = SGP/SGP4

EPOCH          = 2025-11-13T03:10:55.990272
MEAN_MOTION    = 15.74273457
ECCENTRICITY   = .0000959
INCLINATION    = 53.1579
RA_OF_ASC_NODE = 69.1331
ARG_OF_PERICENTER = 47.6688
MEAN_ANOMALY   = 312.4413

EPHEMERIS_TYPE = 0
CLASSIFICATION_TYPE = U
NORAD_CAT_ID   = 66193
ELEMENT_SET_NO = 999
REV_AT_EPOCH   = 277
BSTAR          = .19466E-2
MEAN_MOTION_DOT = .295768E-2
MEAN_MOTION_DDOT = 0

CCSDS_OMM_VERS = 2.0
CREATION_DATE  = 
ORIGINATOR     = 

OBJECT_NAME    = STARLINK-35374
OBJECT_ID      = 2025-243T
CENTER_NAME    = EARTH
REF_FRAME      = TEME
TIME_SYSTEM    = UTC
MEAN_ELEMENT_THEORY = SGP/SGP4

EPOCH          = 2025-11-13T03:11:25.236672
MEAN_MOTION    = 15.74283339
ECCENTRICITY   = .0000857
INCLINATION    = 53.1579
RA_OF_ASC_NODE = 69.1356
ARG_OF_PERICENTER = 86.8999
MEAN_ANOMALY   = 273.2119

EPHEMERIS_TYPE = 0
CLASSIFICATION_TYPE = U
NORAD_CAT_ID   = 66194
ELEMENT_SET_NO = 999
REV_AT_EPOCH   = 277
BSTAR          = .21107E-2
MEAN_MOTION_DOT = .321903E-2
MEAN_MOTION_DDOT = 0

CCSDS_OMM_VERS = 2.0
CREATION_DATE  = 
ORIGINATOR     = 

OBJECT_NAME    = STARLINK-34813
OBJECT_ID      = 2025-243U
CENTER_NAME    = EARTH
REF_FRAME      = TEME
TIME_SYSTEM    = UTC
MEAN_ELEMENT_THEORY = SGP/SGP4

EPOCH          = 2025-11-13T03:11:54.322368
MEAN_MOTION    = 15.74274655
ECCENTRICITY   = .0000846
INCLINATION    = 53.1576
RA_OF_ASC_NODE = 69.1381
ARG_OF_PERICENTER = 86.6034
MEAN_ANOMALY   = 273.5083

EPHEMERIS_TYPE = 0
CLASSIFICATION_TYPE = U
NORAD_CAT_ID   = 66195
ELEMENT_SET_NO = 999
REV_AT_EPOCH   = 277
BSTAR          = .18911E-2
MEAN_MOTION_DOT = .287028E-2
MEAN_MOTION_DDOT = 0

CCSDS_OMM_VERS = 2.0
CREATION_DATE  = 
ORIGINATOR     = 

OBJECT_NAME    = STARLINK-35409
OBJECT_ID      = 2025-243V
CENTER_NAME    = EARTH
REF_FRAME      = TEME
TIME_SYSTEM    = UTC
MEAN_ELEMENT_THEORY = SGP/SGP4

EPOCH          = 2025-11-13T03:12:23.643936
MEAN_MOTION    = 15.74308294
ECCENTRICITY   = .0001329
INCLINATION    = 53.1574
RA_OF_ASC_NODE = 69.1407
ARG_OF_PERICENTER = 119.5332
MEAN_ANOMALY   = 240.5820

EPHEMERIS_TYPE = 0
CLASSIFICATION_TYPE = U
NORAD_CAT_ID   = 66196
ELEMENT_SET_NO = 999
REV_AT_EPOCH   = 277
BSTAR          = .23181E-2
MEAN_MOTION_DOT = .355402E-2
MEAN_MOTION_DDOT = 0

CCSDS_OMM_VERS = 2.0
CREATION_DATE  = 
ORIGINATOR     = 

OBJECT_NAME    = STARLINK-35518
OBJECT_ID      = 2025-243X
CENTER_NAME    = EARTH
REF_FRAME      = TEME
TIME_SYSTEM    = UTC
MEAN_ELEMENT_THEORY = SGP/SGP4

EPOCH          = 2025-11-13T03:13:21.993312
MEAN_MOTION    = 15.74272514
ECCENTRICITY   = .0000678
INCLINATION    = 53.1577
RA_OF_ASC_NODE = 69.1448
ARG_OF_PERICENTER = 98.2769
MEAN_ANOMALY   = 261.8327

EPHEMERIS_TYPE = 0
CLASSIFICATION_TYPE = U
NORAD_CAT_ID   = 66197
ELEMENT_SET_NO = 999
REV_AT_EPOCH   = 277
BSTAR          = .19019E-2
MEAN_MOTION_DOT = .288719E-2
MEAN_MOTION_DDOT = 0

CCSDS_OMM_VERS = 2.0
CREATION_DATE  = 
ORIGINATOR     = 

OBJECT_NAME    = STARLINK-35259
OBJECT_ID      = 2025-243W
CENTER_NAME    = EARTH
REF_FRAME      = TEME
TIME_SYSTEM    = UTC
MEAN_ELEMENT_THEORY = SGP/SGP4

EPOCH          = 2025-11-13T03:03:37.761696
MEAN_MOTION    = 15.74364199
ECCENTRICITY   = .0000538
INCLINATION    = 53.1579
RA_OF_ASC_NODE = 69.0971
ARG_OF_PERICENTER = 102.8664
MEAN_ANOMALY   = 257.2416

EPHEMERIS_TYPE = 0
CLASSIFICATION_TYPE = U
NORAD_CAT_ID   = 66198
ELEMENT_SET_NO = 999
REV_AT_EPOCH   = 277
BSTAR          = .34065E-2
MEAN_MOTION_DOT = .53539E-2
MEAN_MOTION_DDOT = 0

CCSDS_OMM_VERS = 2.0
CREATION_DATE  = 
ORIGINATOR     = 

OBJECT_NAME    = STARLINK-35509
OBJECT_ID      = 2025-243Y
CENTER_NAME    = EARTH
REF_FRAME      = TEME
TIME_SYSTEM    = UTC
MEAN_ELEMENT_THEORY = SGP/SGP4

EPOCH          = 2025-11-13T03:03:08.669952
MEAN_MOTION    = 15.74365305
ECCENTRICITY   = .0000979
INCLINATION    = 53.1579
RA_OF_ASC_NODE = 69.0952
ARG_OF_PERICENTER = 62.7649
MEAN_ANOMALY   = 297.3471

EPHEMERIS_TYPE = 0
CLASSIFICATION_TYPE = U
NORAD_CAT_ID   = 66199
ELEMENT_SET_NO = 999
REV_AT_EPOCH   = 277
BSTAR          = .34641E-2
MEAN_MOTION_DOT = .545088E-2
MEAN_MOTION_DDOT = 0

CCSDS_OMM_VERS = 2.0
CREATION_DATE  = 
ORIGINATOR     = 

OBJECT_NAME    = STARLINK-35551
OBJECT_ID      = 2025-243Z
CENTER_NAME    = EARTH
REF_FRAME      = TEME
TIME_SYSTEM    = UTC
MEAN_ELEMENT_THEORY = SGP/SGP4

EPOCH          = 2025-11-12T22:00:01.999584
MEAN_MOTION    = 15.74182811
ECCENTRICITY   = .00011312
INCLINATION    = 53.1581
RA_OF_ASC_NODE = 70.1486
ARG_OF_PERICENTER = 86.9695
MEAN_ANOMALY   = 155.7478

EPHEMERIS_TYPE = 0
CLASSIFICATION_TYPE = U
NORAD_CAT_ID   = 66200
ELEMENT_SET_NO = 999
REV_AT_EPOCH   = 379
BSTAR          = -.67105277E-4
MEAN_MOTION_DOT = -.10442E-3
MEAN_MOTION_DDOT = 0

